{"type":"FeatureCollection","features":[{"type":"Feature","geometry":{"type":"Polygon","coordinates":[[[2.87319,47.66048],[2.87305,47.65945],[2.87449,47.65746],[2.88048,47.65788],[2.88321,47.6585],[2.88408,47.65791],[2.88259,47.65612],[2.88258,47.65495],[2.88742,47.65281],[2.89136,47.65459],[2.89285,47.65612],[2.8969,47.6551],[2.90109,47.65455],[2.90541,47.6668],[2.90579,47.66862],[2.90728,47.6696],[2.90813,47.67186],[2.91181,47.67333],[2.91518,47.67201],[2.91815,47.66979],[2.92037,47.67082],[2.92053,47.67379],[2.92277,47.67751],[2.92675,47.68176],[2.92109,47.68305],[2.91773,47.68523],[2.91662,47.68784],[2.91462,47.68766],[2.91386,47.69096],[2.90942,47.69205],[2.90774,47.69094],[2.90431,47.69424],[2.90366,47.69689],[2.89926,47.69628],[2.8931,47.69888],[2.89087,47.6999],[2.88406,47.70207],[2.88325,47.70059],[2.8813,47.69889],[2.88222,47.69749],[2.88273,47.69502],[2.87105,47.69255],[2.8689,47.69184],[2.86452,47.69178],[2.86306,47.68688],[2.86379,47.68602],[2.86197,47.68297],[2.85922,47.68249],[2.85788,47.68155],[2.85871,47.67817],[2.86016,47.67614],[2.8564,47.67296],[2.85412,47.67176],[2.86473,47.66691],[2.86777,47.665],[2.87022,47.66206],[2.87319,47.66048]]]},"properties":{"code":"45052","nom":"Breteau"}},{"type":"Feature","geometry":{"type":"Polygon","coordinates":[[[2.74019,47.61481],[2.74194,47.611],[2.74413,47.60796],[2.74689,47.60586],[2.75147,47.60299],[2.75536,47.6013],[2.76065,47.59799],[2.76701,47.59445],[2.76876,47.59323],[2.77341,47.59613],[2.78007,47.59913],[2.78523,47.60185],[2.78771,47.60404],[2.79586,47.60927],[2.79887,47.61164],[2.80466,47.61202],[2.8041,47.61625],[2.80464,47.61738],[2.80785,47.61956],[2.80994,47.62167],[2.80761,47.62195],[2.80355,47.62125],[2.79902,47.6214],[2.79537,47.62204],[2.79345,47.63002],[2.79365,47.6319],[2.79234,47.63397],[2.79218,47.63748],[2.78495,47.64084],[2.77964,47.6427],[2.77791,47.64204],[2.77567,47.64546],[2.77342,47.64682],[2.77116,47.6475],[2.77107,47.65186],[2.77215,47.65325],[2.77148,47.65407],[2.77217,47.65618],[2.77025,47.65767],[2.77056,47.6619],[2.76884,47.66397],[2.76665,47.66551],[2.76627,47.6674],[2.76127,47.66742],[2.75608,47.66622],[2.75581,47.66707],[2.74656,47.67597],[2.74297,47.67985],[2.74425,47.68603],[2.73711,47.68626],[2.73107,47.68708],[2.72721,47.6871],[2.72542,47.68917],[2.72122,47.6896],[2.71584,47.68952],[2.71376,47.68903],[2.71474,47.68507],[2.70689,47.68676],[2.70467,47.68433],[2.69542,47.68414],[2.69261,47.68357],[2.68678,47.679],[2.68171,47.67632],[2.67958,47.67628],[2.67692,47.67543],[2.67736,47.67264],[2.67715,47.67003],[2.67359,47.66573],[2.68196,47.66287],[2.69824,47.65936],[2.70288,47.65754],[2.70541,47.65605],[2.71031,47.65172],[2.71507,47.6458],[2.71888,47.64284],[2.72249,47.64095],[2.72675,47.63826],[2.73174,47.63379],[2.73561,47.62931],[2.73921,47.62312],[2.73894,47.62163],[2.74019,47.61481]]]},"properties":{"code":"45053","nom":"Briare"}},{"type":"Feature","geometry":{"type":"Polygon","coordinates":[[[2.79451,47.71455],[2.79835,47.71144],[2.79426,47.70889],[2.79578,47.70731],[2.79703,47.70492],[2.79587,47.70263],[2.79731,47.70028],[2.80147,47.69577],[2.80429,47.69131],[2.80728,47.68986],[2.81056,47.69066],[2.81421,47.69046],[2.81413,47.68956],[2.8178,47.68977],[2.81896,47.69305],[2.82046,47.69574],[2.82278,47.69501],[2.82337,47.69371],[2.82648,47.6923],[2.82844,47.69395],[2.82989,47.69381],[2.83127,47.69718],[2.83287,47.69897],[2.83883,47.70142],[2.84309,47.70176],[2.84135,47.70802],[2.84897,47.71684],[2.85261,47.72128],[2.84923,47.72296],[2.84865,47.7258],[2.84191,47.72398],[2.83806,47.72544],[2.83466,47.72541],[2.83081,47.72709],[2.82876,47.72975],[2.82897,47.7306],[2.81991,47.73082],[2.811,47.73256],[2.80508,47.72724],[2.79922,47.72807],[2.79553,47.72593],[2.79489,47.72166],[2.79096,47.7194],[2.79207,47.71742],[2.79451,47.71455]]]},"properties":{"code":"45138","nom":"Escrignelles"}},{"type":"Feature","geometry":{"type":"Polygon","coordinates":[[[2.811,47.73256],[2.81991,47.73082],[2.82897,47.7306],[2.82876,47.72975],[2.83081,47.72709],[2.83466,47.72541],[2.83806,47.72544],[2.84191,47.72398],[2.84865,47.7258],[2.85222,47.72662],[2.85335,47.72902],[2.85269,47.73036],[2.85019,47.73262],[2.85127,47.73451],[2.85395,47.73535],[2.85579,47.73966],[2.85483,47.74009],[2.8571,47.74372],[2.85827,47.74679],[2.85782,47.74867],[2.85901,47.74954],[2.85612,47.7538],[2.85199,47.75786],[2.85343,47.75918],[2.85667,47.76093],[2.85648,47.76174],[2.852,47.76275],[2.84596,47.76275],[2.84498,47.76473],[2.844,47.76858],[2.8419,47.77215],[2.84117,47.7753],[2.83724,47.77387],[2.83331,47.77385],[2.83093,47.7695],[2.82845,47.76779],[2.82663,47.76587],[2.82648,47.76394],[2.82858,47.7606],[2.82923,47.75849],[2.82233,47.75446],[2.82083,47.75159],[2.8164,47.74104],[2.81281,47.73503],[2.811,47.73256]]]},"properties":{"code":"45143","nom":"Feins-en-Gâtinais"}},{"type":"Feature","geometry":{"type":"Polygon","coordinates":[[[2.80994,47.62167],[2.81475,47.62462],[2.82043,47.62784],[2.82239,47.63102],[2.82952,47.6385],[2.8369,47.64535],[2.84326,47.64964],[2.84877,47.65461],[2.8513,47.65554],[2.85391,47.65589],[2.85617,47.65678],[2.85937,47.65632],[2.86231,47.6577],[2.86631,47.65776],[2.87017,47.6586],[2.87319,47.66048],[2.87022,47.66206],[2.86777,47.665],[2.86473,47.66691],[2.85412,47.67176],[2.8564,47.67296],[2.86016,47.67614],[2.85871,47.67817],[2.85788,47.68155],[2.85922,47.68249],[2.86197,47.68297],[2.86379,47.68602],[2.86306,47.68688],[2.86452,47.69178],[2.8689,47.69184],[2.87105,47.69255],[2.88273,47.69502],[2.88222,47.69749],[2.8813,47.69889],[2.88325,47.70059],[2.88406,47.70207],[2.87915,47.7038],[2.87991,47.70614],[2.88213,47.70806],[2.88407,47.70765],[2.88442,47.70994],[2.88389,47.71075],[2.88465,47.71389],[2.88181,47.71557],[2.87886,47.72035],[2.87228,47.71643],[2.86841,47.71514],[2.86176,47.7104],[2.86063,47.70992],[2.85508,47.71547],[2.85183,47.71594],[2.84897,47.71684],[2.84135,47.70802],[2.84309,47.70176],[2.83883,47.70142],[2.83287,47.69897],[2.83127,47.69718],[2.82989,47.69381],[2.82844,47.69395],[2.82648,47.6923],[2.82337,47.69371],[2.82278,47.69501],[2.82046,47.69574],[2.81896,47.69305],[2.8178,47.68977],[2.81413,47.68956],[2.81421,47.69046],[2.81056,47.69066],[2.80728,47.68986],[2.80429,47.69131],[2.80147,47.69577],[2.79731,47.70028],[2.79587,47.70263],[2.79703,47.70492],[2.79578,47.70731],[2.79426,47.70889],[2.79835,47.71144],[2.79451,47.71455],[2.78908,47.71138],[2.78782,47.71184],[2.78567,47.71041],[2.77966,47.70827],[2.77867,47.70972],[2.77557,47.71224],[2.77283,47.71252],[2.7687,47.71209],[2.76282,47.71112],[2.75558,47.71214],[2.74803,47.71154],[2.74849,47.70996],[2.74787,47.7065],[2.74719,47.6971],[2.74581,47.69027],[2.74425,47.68603],[2.74297,47.67985],[2.74656,47.67597],[2.75581,47.66707],[2.75608,47.66622],[2.76127,47.66742],[2.76627,47.6674],[2.76665,47.66551],[2.76884,47.66397],[2.77056,47.6619],[2.77025,47.65767],[2.77217,47.65618],[2.77148,47.65407],[2.77215,47.65325],[2.77107,47.65186],[2.77116,47.6475],[2.77342,47.64682],[2.77567,47.64546],[2.77791,47.64204],[2.77964,47.6427],[2.78495,47.64084],[2.79218,47.63748],[2.79234,47.63397],[2.79365,47.6319],[2.79345,47.63002],[2.79537,47.62204],[2.79902,47.6214],[2.80355,47.62125],[2.80761,47.62195],[2.80994,47.62167]]]},"properties":{"code":"45245","nom":"Ouzouer-sur-Trézée"}},{"type":"Feature","geometry":{"type":"Polygon","coordinates":[[[2.74934,47.76792],[2.75732,47.76371],[2.76622,47.76048],[2.77319,47.75659],[2.7735,47.75317],[2.77674,47.75005],[2.779,47.74861],[2.78116,47.74401],[2.78805,47.73859],[2.79108,47.7353],[2.79939,47.73185],[2.80299,47.73179],[2.79922,47.72807],[2.80508,47.72724],[2.811,47.73256],[2.81281,47.73503],[2.8164,47.74104],[2.82083,47.75159],[2.82233,47.75446],[2.82923,47.75849],[2.82858,47.7606],[2.82648,47.76394],[2.82663,47.76587],[2.82845,47.76779],[2.83093,47.7695],[2.83331,47.77385],[2.83474,47.7769],[2.83597,47.78611],[2.82934,47.78755],[2.82112,47.7883],[2.81738,47.78972],[2.8057,47.78995],[2.79409,47.78865],[2.78891,47.78417],[2.78781,47.78123],[2.78528,47.78119],[2.77959,47.78054],[2.76919,47.78013],[2.76675,47.78324],[2.76525,47.77991],[2.76251,47.7784],[2.76159,47.7757],[2.75465,47.77379],[2.75263,47.77128],[2.74934,47.76792]]]},"properties":{"code":"45001","nom":"Adon"}},{"type":"Feature","geometry":{"type":"Polygon","coordinates":[[[2.60708,47.54916],[2.61646,47.55137],[2.62551,47.55427],[2.62638,47.55522],[2.62215,47.55824],[2.62615,47.5604],[2.62728,47.56215],[2.63274,47.56438],[2.63775,47.56725],[2.64009,47.56953],[2.6432,47.56934],[2.644,47.57073],[2.65146,47.57323],[2.6544,47.57493],[2.65655,47.57709],[2.65934,47.5792],[2.65968,47.57974],[2.66442,47.58277],[2.65992,47.58652],[2.65667,47.58806],[2.65542,47.58933],[2.65537,47.59089],[2.65293,47.59554],[2.6484,47.59375],[2.64868,47.59717],[2.64843,47.59942],[2.64585,47.60267],[2.64467,47.60581],[2.64262,47.60654],[2.64124,47.60861],[2.63674,47.61226],[2.63461,47.61385],[2.63102,47.6134],[2.62591,47.61666],[2.62426,47.61832],[2.62634,47.62061],[2.62495,47.62111],[2.62042,47.62265],[2.61693,47.62608],[2.60205,47.63178],[2.59879,47.63323],[2.59467,47.63368],[2.59501,47.63508],[2.59149,47.63526],[2.59064,47.63985],[2.58366,47.64032],[2.58247,47.63982],[2.58074,47.64117],[2.57867,47.63979],[2.5732,47.63881],[2.57081,47.63877],[2.56727,47.63761],[2.56415,47.63703],[2.56095,47.6355],[2.55861,47.6338],[2.55874,47.63259],[2.55707,47.62885],[2.55519,47.62823],[2.55385,47.62473],[2.54425,47.61871],[2.54716,47.61588],[2.54862,47.61525],[2.56016,47.60582],[2.5622,47.60299],[2.5739,47.58534],[2.5717,47.58444],[2.57448,47.58187],[2.57049,47.5808],[2.56536,47.57869],[2.56722,47.57587],[2.57171,47.57171],[2.56985,47.57064],[2.56758,47.56849],[2.56878,47.5685],[2.56989,47.56475],[2.57133,47.56173],[2.57392,47.55944],[2.57664,47.55866],[2.58082,47.55825],[2.5838,47.55748],[2.59144,47.55796],[2.59391,47.55831],[2.59636,47.55714],[2.59835,47.5543],[2.6008,47.55353],[2.60225,47.55159],[2.60588,47.54897],[2.60708,47.54916]]]},"properties":{"code":"45016","nom":"Autry-le-Châtel"}},{"type":"Feature","geometry":{"type":"Polygon","coordinates":[[[2.83756,47.60361],[2.83985,47.59861],[2.84215,47.59546],[2.8503,47.5934],[2.8556,47.5917],[2.86242,47.58834],[2.86706,47.58671],[2.86812,47.5867],[2.873,47.58871],[2.87738,47.58855],[2.87979,47.58961],[2.8826,47.59189],[2.88036,47.59384],[2.87798,47.59484],[2.88597,47.59611],[2.89055,47.59577],[2.89309,47.59702],[2.89454,47.59584],[2.89683,47.59844],[2.8985,47.59956],[2.90137,47.60049],[2.90173,47.60278],[2.90365,47.60464],[2.90816,47.60719],[2.90664,47.61057],[2.90867,47.61544],[2.91193,47.61585],[2.91404,47.61558],[2.91536,47.61454],[2.91617,47.6174],[2.91617,47.61982],[2.91812,47.62311],[2.91942,47.62438],[2.92576,47.62819],[2.93232,47.62705],[2.9345,47.6309],[2.93611,47.6326],[2.9366,47.63463],[2.93616,47.63643],[2.93342,47.63509],[2.92068,47.63866],[2.90889,47.63863],[2.9083,47.63796],[2.90901,47.63553],[2.90637,47.63226],[2.90238,47.6325],[2.90037,47.63085],[2.89948,47.62897],[2.89701,47.62771],[2.89346,47.62526],[2.89197,47.62347],[2.89031,47.62285],[2.88686,47.62385],[2.88563,47.62093],[2.88282,47.61991],[2.88109,47.61988],[2.87938,47.62123],[2.8763,47.61918],[2.87017,47.61849],[2.86857,47.61777],[2.86341,47.61443],[2.86233,47.61339],[2.86104,47.61034],[2.85859,47.61045],[2.85482,47.6123],[2.84713,47.60919],[2.83952,47.60675],[2.83958,47.60505],[2.83756,47.60361]]]},"properties":{"code":"45023","nom":"Batilly-en-Puisaye"}},{"type":"Feature","geometry":{"type":"Polygon","coordinates":[[[2.73182,47.53809],[2.73262,47.53804],[2.7348,47.53579],[2.73563,47.53281],[2.738,47.5302],[2.73853,47.52849],[2.746,47.52482],[2.75011,47.52399],[2.7543,47.52411],[2.75927,47.52522],[2.76712,47.5251],[2.76848,47.52235],[2.77569,47.51805],[2.77743,47.51926],[2.77973,47.51768],[2.78073,47.5179],[2.78171,47.51561],[2.78529,47.51595],[2.7866,47.51424],[2.78459,47.5101],[2.78723,47.5092],[2.79014,47.50725],[2.79636,47.50551],[2.79324,47.4977],[2.79687,47.4967],[2.80346,47.49775],[2.80377,47.49518],[2.80648,47.49446],[2.80781,47.49436],[2.81618,47.49545],[2.82535,47.49721],[2.82743,47.49923],[2.83038,47.5029],[2.83281,47.50721],[2.83469,47.50891],[2.83923,47.51123],[2.84708,47.51367],[2.85485,47.51485],[2.86377,47.51647],[2.86609,47.51669],[2.86969,47.51789],[2.87463,47.52042],[2.87074,47.52314],[2.86394,47.52731],[2.8596,47.53084],[2.85596,47.5331],[2.85206,47.53501],[2.8489,47.53754],[2.84746,47.53966],[2.84663,47.54241],[2.84519,47.54493],[2.84127,47.54682],[2.83874,47.54855],[2.83691,47.54801],[2.83396,47.55181],[2.83167,47.55615],[2.82385,47.56508],[2.81531,47.56902],[2.80907,47.57742],[2.80623,47.57956],[2.80312,47.58096],[2.79918,47.57836],[2.79616,47.57478],[2.79265,47.5761],[2.78917,47.57341],[2.78804,47.57373],[2.78343,47.57015],[2.78137,47.56988],[2.77686,47.56483],[2.77746,47.56437],[2.76726,47.55964],[2.76621,47.56005],[2.76226,47.55688],[2.75684,47.55293],[2.75624,47.55213],[2.74129,47.54287],[2.73176,47.5389],[2.73182,47.53809]]]},"properties":{"code":"45029","nom":"Beaulieu-sur-Loire"}},{"type":"Feature","geometry":{"type":"Polygon","coordinates":[[[2.84519,47.54493],[2.84859,47.54605],[2.85139,47.54747],[2.85274,47.54985],[2.85615,47.55145],[2.85655,47.55235],[2.86023,47.554],[2.86159,47.5508],[2.86085,47.55036],[2.86267,47.54634],[2.86798,47.54636],[2.87322,47.54512],[2.87443,47.54642],[2.8752,47.54938],[2.87347,47.5494],[2.8739,47.55281],[2.87622,47.55325],[2.88339,47.55272],[2.88294,47.55403],[2.88325,47.55776],[2.88401,47.5609],[2.88358,47.5641],[2.88104,47.56892],[2.88107,47.57288],[2.87667,47.57351],[2.8723,47.57175],[2.87145,47.57459],[2.86488,47.5748],[2.86817,47.57866],[2.86393,47.58056],[2.86175,47.58092],[2.86237,47.58313],[2.86584,47.58478],[2.86706,47.58671],[2.86242,47.58834],[2.8556,47.5917],[2.8503,47.5934],[2.84215,47.59546],[2.83985,47.59861],[2.83756,47.60361],[2.83325,47.60377],[2.83061,47.60553],[2.83081,47.60629],[2.82232,47.60826],[2.82047,47.60998],[2.82204,47.61393],[2.82019,47.61461],[2.81987,47.61718],[2.81432,47.61311],[2.8118,47.61433],[2.80691,47.61094],[2.80404,47.6101],[2.80033,47.60296],[2.80449,47.60002],[2.80659,47.59735],[2.80657,47.59524],[2.80245,47.59413],[2.79756,47.59132],[2.79961,47.58902],[2.79913,47.58853],[2.80251,47.58595],[2.80069,47.58434],[2.79982,47.58246],[2.80312,47.58096],[2.80623,47.57956],[2.80907,47.57742],[2.81531,47.56902],[2.82385,47.56508],[2.83167,47.55615],[2.83396,47.55181],[2.83691,47.54801],[2.83874,47.54855],[2.84127,47.54682],[2.84519,47.54493]]]},"properties":{"code":"45040","nom":"Bonny-sur-Loire"}},{"type":"Feature","geometry":{"type":"Polygon","coordinates":[[[2.70368,47.75341],[2.69747,47.74197],[2.69332,47.73874],[2.69782,47.73459],[2.69873,47.73189],[2.70302,47.72558],[2.70494,47.72351],[2.70694,47.7226],[2.70872,47.71895],[2.71328,47.71395],[2.71533,47.71209],[2.72364,47.70977],[2.72916,47.70899],[2.73573,47.70627],[2.73907,47.70779],[2.74134,47.70764],[2.74353,47.7066],[2.74787,47.7065],[2.74849,47.70996],[2.74803,47.71154],[2.75558,47.71214],[2.76282,47.71112],[2.7687,47.71209],[2.77283,47.71252],[2.77557,47.71224],[2.77867,47.70972],[2.77966,47.70827],[2.78567,47.71041],[2.78782,47.71184],[2.78908,47.71138],[2.79451,47.71455],[2.79207,47.71742],[2.79096,47.7194],[2.79489,47.72166],[2.79553,47.72593],[2.79922,47.72807],[2.80299,47.73179],[2.79939,47.73185],[2.79108,47.7353],[2.78805,47.73859],[2.78116,47.74401],[2.779,47.74861],[2.77674,47.75005],[2.7735,47.75317],[2.77319,47.75659],[2.76622,47.76048],[2.75732,47.76371],[2.74934,47.76792],[2.7472,47.76663],[2.74385,47.7656],[2.73963,47.76243],[2.73862,47.76131],[2.73389,47.76101],[2.73101,47.76052],[2.724,47.75852],[2.72285,47.75727],[2.70961,47.75146],[2.70368,47.75341]]]},"properties":{"code":"45060","nom":"Bussière"}},{"type":"Feature","geometry":{"type":"Polygon","coordinates":[[[2.60708,47.54916],[2.60881,47.54744],[2.6109,47.5442],[2.61177,47.54428],[2.61674,47.5409],[2.61687,47.53932],[2.61618,47.53528],[2.61511,47.53398],[2.6135,47.52966],[2.61196,47.5276],[2.61202,47.52638],[2.61532,47.52386],[2.61904,47.52403],[2.6232,47.52146],[2.625,47.52235],[2.627,47.52072],[2.63026,47.52202],[2.63645,47.51562],[2.63819,47.51638],[2.64243,47.51565],[2.6439,47.5165],[2.64594,47.51501],[2.64681,47.51617],[2.64933,47.51523],[2.64912,47.51266],[2.65409,47.5122],[2.65442,47.51063],[2.65587,47.5104],[2.65557,47.51386],[2.65597,47.51556],[2.65798,47.51768],[2.65839,47.52145],[2.6622,47.52414],[2.66328,47.52639],[2.66933,47.52911],[2.6704,47.53064],[2.67068,47.53244],[2.67508,47.53436],[2.67854,47.53462],[2.68153,47.53645],[2.68598,47.53671],[2.68951,47.53755],[2.69602,47.53807],[2.69908,47.53793],[2.68954,47.55145],[2.68836,47.55492],[2.68395,47.57017],[2.68052,47.57437],[2.67765,47.57325],[2.67621,47.57506],[2.67264,47.57804],[2.67156,47.57749],[2.66705,47.57931],[2.65934,47.5792],[2.65655,47.57709],[2.6544,47.57493],[2.65146,47.57323],[2.644,47.57073],[2.6432,47.56934],[2.64009,47.56953],[2.63775,47.56725],[2.63274,47.56438],[2.62728,47.56215],[2.62615,47.5604],[2.62215,47.55824],[2.62638,47.55522],[2.62551,47.55427],[2.61646,47.55137],[2.60708,47.54916]]]},"properties":{"code":"45064","nom":"Cernoy-en-Berry"}},{"type":"Feature","geometry":{"type":"Polygon","coordinates":[[[2.90109,47.65455],[2.89977,47.65096],[2.89927,47.64772],[2.90258,47.64572],[2.90457,47.64382],[2.90668,47.64265],[2.90889,47.63863],[2.92068,47.63866],[2.93342,47.63509],[2.93616,47.63643],[2.94446,47.64079],[2.94774,47.64302],[2.95423,47.64569],[2.9508,47.64814],[2.94956,47.64958],[2.94214,47.65367],[2.94158,47.65754],[2.93694,47.65913],[2.93531,47.65734],[2.92842,47.65805],[2.92662,47.659],[2.9254,47.66234],[2.92026,47.66789],[2.91815,47.66979],[2.91518,47.67201],[2.91181,47.67333],[2.90813,47.67186],[2.90728,47.6696],[2.90579,47.66862],[2.90541,47.6668],[2.90109,47.65455]]]},"properties":{"code":"45070","nom":"Champoulet"}},{"type":"Feature","geometry":{"type":"Polygon","coordinates":[[[2.69908,47.53793],[2.70425,47.53607],[2.70524,47.53633],[2.71077,47.53929],[2.7139,47.53932],[2.71755,47.53993],[2.72041,47.54096],[2.72201,47.54082],[2.72347,47.53943],[2.72677,47.53739],[2.72715,47.53622],[2.73182,47.53809],[2.73176,47.5389],[2.74129,47.54287],[2.75624,47.55213],[2.75684,47.55293],[2.76226,47.55688],[2.76621,47.56005],[2.76726,47.55964],[2.77746,47.56437],[2.77686,47.56483],[2.78137,47.56988],[2.78343,47.57015],[2.78804,47.57373],[2.78917,47.57341],[2.79265,47.5761],[2.79616,47.57478],[2.79918,47.57836],[2.80312,47.58096],[2.79982,47.58246],[2.7906,47.5855],[2.7761,47.58942],[2.76876,47.59323],[2.76701,47.59445],[2.76065,47.59799],[2.75536,47.6013],[2.75147,47.60299],[2.74689,47.60586],[2.74413,47.60796],[2.74194,47.611],[2.74019,47.61481],[2.73925,47.61497],[2.72741,47.60624],[2.72274,47.60177],[2.7211,47.59974],[2.72004,47.59752],[2.7169,47.59728],[2.71526,47.59215],[2.70883,47.59294],[2.70854,47.59056],[2.70572,47.58693],[2.70265,47.58487],[2.70469,47.58288],[2.70589,47.58306],[2.70742,47.58139],[2.70608,47.58058],[2.70034,47.57822],[2.69054,47.57308],[2.68395,47.57017],[2.68836,47.55492],[2.68954,47.55145],[2.69908,47.53793]]]},"properties":{"code":"45087","nom":"Châtillon-sur-Loire"}},{"type":"Feature","geometry":{"type":"Polygon","coordinates":[[[2.81475,47.62462],[2.81731,47.61975],[2.81987,47.61718],[2.82019,47.61461],[2.82204,47.61393],[2.82047,47.60998],[2.82232,47.60826],[2.83081,47.60629],[2.83061,47.60553],[2.83325,47.60377],[2.83756,47.60361],[2.83958,47.60505],[2.83952,47.60675],[2.84713,47.60919],[2.85482,47.6123],[2.85859,47.61045],[2.86104,47.61034],[2.86233,47.61339],[2.86341,47.61443],[2.86857,47.61777],[2.87017,47.61849],[2.8763,47.61918],[2.87938,47.62123],[2.88109,47.61988],[2.88282,47.61991],[2.88563,47.62093],[2.88686,47.62385],[2.89031,47.62285],[2.89197,47.62347],[2.89346,47.62526],[2.89701,47.62771],[2.89948,47.62897],[2.90037,47.63085],[2.90238,47.6325],[2.90637,47.63226],[2.90901,47.63553],[2.9083,47.63796],[2.90889,47.63863],[2.90668,47.64265],[2.90457,47.64382],[2.90258,47.64572],[2.89927,47.64772],[2.89977,47.65096],[2.90109,47.65455],[2.8969,47.6551],[2.89285,47.65612],[2.89136,47.65459],[2.88742,47.65281],[2.88258,47.65495],[2.88259,47.65612],[2.88408,47.65791],[2.88321,47.6585],[2.88048,47.65788],[2.87449,47.65746],[2.87305,47.65945],[2.87319,47.66048],[2.87017,47.6586],[2.86631,47.65776],[2.86231,47.6577],[2.85937,47.65632],[2.85617,47.65678],[2.85391,47.65589],[2.8513,47.65554],[2.84877,47.65461],[2.84326,47.64964],[2.8369,47.64535],[2.82952,47.6385],[2.82239,47.63102],[2.82043,47.62784],[2.81475,47.62462]]]},"properties":{"code":"45120","nom":"Dammarie-en-Puisaye"}},{"type":"Feature","geometry":{"type":"Polygon","coordinates":[[[2.95866,47.55738],[2.96236,47.56276],[2.96344,47.56387],[2.97154,47.56783],[2.97654,47.56943],[2.97466,47.57357],[2.97067,47.57337],[2.96548,47.57358],[2.96227,47.57679],[2.96409,47.58002],[2.96445,47.58163],[2.96315,47.5834],[2.96231,47.58592],[2.96078,47.58565],[2.95704,47.5895],[2.95499,47.59041],[2.95306,47.59038],[2.95064,47.58885],[2.9494,47.5899],[2.94345,47.59317],[2.94198,47.5988],[2.93872,47.59877],[2.93627,47.59932],[2.93923,47.60259],[2.94144,47.60429],[2.94522,47.60845],[2.94146,47.61076],[2.9405,47.61432],[2.93739,47.61614],[2.93835,47.61847],[2.93418,47.62074],[2.93483,47.62501],[2.93552,47.62653],[2.93232,47.62705],[2.92576,47.62819],[2.91942,47.62438],[2.91812,47.62311],[2.91617,47.61982],[2.91617,47.6174],[2.91536,47.61454],[2.91252,47.61064],[2.91391,47.60978],[2.91559,47.60532],[2.91441,47.60132],[2.91374,47.60056],[2.91405,47.59813],[2.91171,47.59683],[2.91209,47.59584],[2.91624,47.59124],[2.91995,47.59037],[2.92218,47.58752],[2.92187,47.58374],[2.91684,47.57995],[2.91542,47.57798],[2.91585,47.57474],[2.91257,47.57223],[2.91235,47.56967],[2.9143,47.56597],[2.92418,47.56394],[2.9322,47.56318],[2.95706,47.55793],[2.95866,47.55738]]]},"properties":{"code":"45141","nom":"Faverelles"}},{"type":"Feature","geometry":{"type":"Polygon","coordinates":[[[2.76876,47.59323],[2.7761,47.58942],[2.7906,47.5855],[2.79982,47.58246],[2.80069,47.58434],[2.80251,47.58595],[2.79913,47.58853],[2.79961,47.58902],[2.79756,47.59132],[2.80245,47.59413],[2.80657,47.59524],[2.80659,47.59735],[2.80449,47.60002],[2.80033,47.60296],[2.80404,47.6101],[2.80691,47.61094],[2.8118,47.61433],[2.81432,47.61311],[2.81987,47.61718],[2.81731,47.61975],[2.81475,47.62462],[2.80994,47.62167],[2.80785,47.61956],[2.80464,47.61738],[2.8041,47.61625],[2.80466,47.61202],[2.79887,47.61164],[2.79586,47.60927],[2.78771,47.60404],[2.78523,47.60185],[2.78007,47.59913],[2.77341,47.59613],[2.76876,47.59323]]]},"properties":{"code":"45238","nom":"Ousson-sur-Loire"}},{"type":"Feature","geometry":{"type":"Polygon","coordinates":[[[2.65587,47.5104],[2.65598,47.5045],[2.6557,47.50244],[2.65635,47.50005],[2.65619,47.49771],[2.65684,47.4956],[2.65597,47.49258],[2.65715,47.49096],[2.65926,47.4893],[2.6576,47.48728],[2.66316,47.48627],[2.66654,47.48509],[2.66938,47.48468],[2.6727,47.48484],[2.67847,47.48366],[2.68444,47.48297],[2.68636,47.48319],[2.69034,47.4838],[2.69334,47.48474],[2.69714,47.48703],[2.70339,47.48903],[2.71002,47.48914],[2.71539,47.488],[2.71606,47.48953],[2.71615,47.49236],[2.71941,47.49329],[2.71895,47.49514],[2.72486,47.494],[2.72741,47.49889],[2.72609,47.49956],[2.72418,47.50168],[2.72002,47.50485],[2.72494,47.50574],[2.72767,47.50681],[2.72457,47.51018],[2.72434,47.51374],[2.72376,47.51608],[2.72895,47.51876],[2.72956,47.52033],[2.72526,47.52125],[2.72234,47.5213],[2.7237,47.52562],[2.72543,47.52727],[2.72771,47.53051],[2.72931,47.53208],[2.72753,47.53414],[2.72715,47.53622],[2.72677,47.53739],[2.72347,47.53943],[2.72201,47.54082],[2.72041,47.54096],[2.71755,47.53993],[2.7139,47.53932],[2.71077,47.53929],[2.70524,47.53633],[2.70425,47.53607],[2.69908,47.53793],[2.69602,47.53807],[2.68951,47.53755],[2.68598,47.53671],[2.68153,47.53645],[2.67854,47.53462],[2.67508,47.53436],[2.67068,47.53244],[2.6704,47.53064],[2.66933,47.52911],[2.66328,47.52639],[2.6622,47.52414],[2.65839,47.52145],[2.65798,47.51768],[2.65597,47.51556],[2.65557,47.51386],[2.65587,47.5104]]]},"properties":{"code":"45251","nom":"Pierrefitte-ès-Bois"}},{"type":"Feature","geometry":{"type":"Polygon","coordinates":[[[2.65934,47.5792],[2.66705,47.57931],[2.67156,47.57749],[2.67264,47.57804],[2.67621,47.57506],[2.67765,47.57325],[2.68052,47.57437],[2.68395,47.57017],[2.69054,47.57308],[2.70034,47.57822],[2.70608,47.58058],[2.70742,47.58139],[2.70589,47.58306],[2.70469,47.58288],[2.70265,47.58487],[2.70572,47.58693],[2.70854,47.59056],[2.70883,47.59294],[2.71526,47.59215],[2.7169,47.59728],[2.72004,47.59752],[2.7211,47.59974],[2.72274,47.60177],[2.72741,47.60624],[2.73925,47.61497],[2.74019,47.61481],[2.73894,47.62163],[2.73921,47.62312],[2.73561,47.62931],[2.73174,47.63379],[2.72675,47.63826],[2.72249,47.64095],[2.71888,47.64284],[2.71507,47.6458],[2.71272,47.64456],[2.71331,47.64374],[2.71035,47.64083],[2.70464,47.63195],[2.69712,47.62284],[2.68604,47.61505],[2.6831,47.61461],[2.67577,47.61139],[2.67609,47.60969],[2.67529,47.6082],[2.67141,47.60574],[2.66688,47.60445],[2.6658,47.60283],[2.66207,47.60037],[2.66013,47.59862],[2.65293,47.59554],[2.65537,47.59089],[2.65542,47.58933],[2.65667,47.58806],[2.65992,47.58652],[2.66442,47.58277],[2.65968,47.57974],[2.65934,47.5792]]]},"properties":{"code":"45276","nom":"Saint-Firmin-sur-Loire"}},{"type":"Feature","geometry":{"type":"Polygon","coordinates":[[[2.88339,47.55272],[2.89011,47.5526],[2.8959,47.55437],[2.89789,47.55441],[2.9035,47.55645],[2.90489,47.55621],[2.90684,47.55832],[2.90937,47.55961],[2.91007,47.56221],[2.91394,47.56409],[2.9143,47.56597],[2.91235,47.56967],[2.91257,47.57223],[2.91585,47.57474],[2.91542,47.57798],[2.91684,47.57995],[2.92187,47.58374],[2.92218,47.58752],[2.91995,47.59037],[2.91624,47.59124],[2.91209,47.59584],[2.91171,47.59683],[2.91405,47.59813],[2.91374,47.60056],[2.91441,47.60132],[2.91559,47.60532],[2.91391,47.60978],[2.91252,47.61064],[2.91536,47.61454],[2.91404,47.61558],[2.91193,47.61585],[2.90867,47.61544],[2.90664,47.61057],[2.90816,47.60719],[2.90365,47.60464],[2.90173,47.60278],[2.90137,47.60049],[2.8985,47.59956],[2.89683,47.59844],[2.89454,47.59584],[2.89309,47.59702],[2.89055,47.59577],[2.88597,47.59611],[2.87798,47.59484],[2.88036,47.59384],[2.8826,47.59189],[2.87979,47.58961],[2.87738,47.58855],[2.873,47.58871],[2.86812,47.5867],[2.86706,47.58671],[2.86584,47.58478],[2.86237,47.58313],[2.86175,47.58092],[2.86393,47.58056],[2.86817,47.57866],[2.86488,47.5748],[2.87145,47.57459],[2.8723,47.57175],[2.87667,47.57351],[2.88107,47.57288],[2.88104,47.56892],[2.88358,47.5641],[2.88401,47.5609],[2.88325,47.55776],[2.88294,47.55403],[2.88339,47.55272]]]},"properties":{"code":"45323","nom":"Thou"}}]}