{"type":"FeatureCollection","features":[{"type":"Feature","geometry":{"type":"MultiPolygon","coordinates":[[[[2.723704,47.514084],[2.722353,47.52258],[2.726011,47.528206],[2.726681,47.536341],[2.731639,47.538217],[2.735404,47.534071],[2.738376,47.528799],[2.745754,47.525098],[2.750396,47.524095],[2.768245,47.523379],[2.777314,47.518333],[2.785401,47.512588],[2.794855,47.502244],[2.804204,47.495068],[2.806432,47.494388],[2.825368,47.497289],[2.83015,47.502782],[2.832645,47.507195],[2.836778,47.510131],[2.846067,47.513553],[2.872094,47.519132],[2.874491,47.520347],[2.85054,47.53611],[2.848643,47.53772],[2.844895,47.544888],[2.87441,47.553041],[2.883862,47.552717],[2.895107,47.553971],[2.90568,47.55736],[2.909393,47.559616],[2.909757,47.561796],[2.911724,47.562809],[2.914333,47.566032],[2.958791,47.557512],[2.963303,47.563938],[2.976535,47.569477],[2.974978,47.572536],[2.964489,47.581771],[2.951195,47.589749],[2.949392,47.589898],[2.943447,47.593168],[2.939116,47.599896],[2.940965,47.613215],[2.935649,47.626402],[2.932324,47.627045],[2.936522,47.633499],[2.936155,47.636425],[2.953941,47.645941],[2.94234,47.653397],[2.941035,47.657582],[2.921518,47.666676],[2.918166,47.669772],[2.920136,47.670909],[2.922956,47.677973],[2.920951,47.683179],[2.914058,47.689943],[2.893094,47.69888],[2.884067,47.70207],[2.882941,47.702615],[2.884657,47.713895],[2.878858,47.720353],[2.865742,47.713261],[2.858318,47.712032],[2.848651,47.716982],[2.848516,47.726016],[2.852247,47.726654],[2.853466,47.72904],[2.857705,47.750821],[2.856361,47.761802],[2.845895,47.762757],[2.835785,47.773934],[2.833058,47.773911],[2.834813,47.777781],[2.835944,47.786231],[2.81734,47.789785],[2.805668,47.790032],[2.794086,47.788694],[2.785461,47.781371],[2.769179,47.780199],[2.766837,47.783302],[2.765446,47.779991],[2.761812,47.776629],[2.75303,47.772075],[2.749006,47.767836],[2.741033,47.763732],[2.709277,47.751565],[2.703918,47.753497],[2.696073,47.741109],[2.701172,47.728263],[2.70859,47.719101],[2.714113,47.713416],[2.717517,47.711512],[2.732964,47.708011],[2.747577,47.706652],[2.747192,47.697102],[2.744207,47.686075],[2.725372,47.689288],[2.715217,47.689975],[2.689324,47.681219],[2.67677,47.675222],[2.673656,47.665812],[2.698048,47.659407],[2.702993,47.657417],[2.709482,47.652814],[2.715122,47.645827],[2.709744,47.640669],[2.704641,47.631947],[2.697149,47.622944],[2.685844,47.615118],[2.676064,47.610018],[2.65926,47.598083],[2.652695,47.595558],[2.648131,47.593751],[2.64843,47.599417],[2.645198,47.603968],[2.636746,47.612253],[2.62482,47.620887],[2.617558,47.625732],[2.602048,47.631777],[2.590586,47.639774],[2.581941,47.640544],[2.564231,47.637096],[2.558612,47.633802],[2.55027,47.619137],[2.550215,47.61394],[2.56006,47.605606],[2.574008,47.585289],[2.569515,47.570435],[2.567444,47.56853],[2.568816,47.568496],[2.570666,47.562803],[2.57284,47.559823],[2.598979,47.554193],[2.603214,47.550613],[2.606006,47.549034],[2.607083,47.549151],[2.607827,47.547656],[2.616452,47.541048],[2.617048,47.539365],[2.611873,47.526504],[2.61532,47.523857],[2.631544,47.520681],[2.655744,47.510436],[2.655941,47.492633],[2.66215,47.486403],[2.669398,47.484651],[2.672281,47.484894],[2.680688,47.483426],[2.686517,47.483296],[2.691767,47.4841],[2.716053,47.491201],[2.727215,47.498854],[2.724213,47.501265],[2.721362,47.505361],[2.723704,47.514084]]]]},"properties":{"codgeo":"200068278","libgeo":"CC Berry Loire Puisaye","nature":"Communauté de communes"}}]}